{
  "type": "FeatureCollection",
  "features": [
    {
      "type": "Feature",
      "properties": {
        "norad_id": 24876,
        "name": "GPS BIIR-2  (PRN 13)",
        "group": "gps-ops",
        "lat": -19.081824165119986,
        "lon": -60.99729503524211,
        "alt_km": 20398.012784699666,
        "timestamp": "2025-12-22T23:36:20.971578+00:00",
        "meta_object_name": "GPS BIIR-2  (PRN 13)",
        "meta_object_id": "1997-035A",
        "meta_epoch": "2025-12-22T04:56:13.452864",
        "meta_mean_motion": 2.00563743,
        "meta_eccentricity": 0.00968355,
        "meta_inclination": 55.8998,
        "meta_ra_of_asc_node": 105.4987,
        "meta_arg_of_pericenter": 56.9648,
        "meta_mean_anomaly": 303.9476,
        "meta_ephemeris_type": 0,
        "meta_classification_type": "U",
        "meta_norad_cat_id": 24876,
        "meta_element_set_no": 999,
        "meta_rev_at_epoch": 20840,
        "meta_bstar": 0,
        "meta_mean_motion_dot": 1.2e-07,
        "meta_mean_motion_ddot": 0,
        "tle_line1": "1 24876U 97035A   25356.20571126  .00000012  00000+0  00000+0 0  9997",
        "tle_line2": "2 24876  55.8998 105.4987 0096835  56.9648 303.9476  2.00563743208402"
      },
      "geometry": {
        "type": "Point",
        "coordinates": [
          -60.99729503524211,
          -19.081824165119986
        ]
      }
    },
    {
      "type": "Feature",
      "properties": {
        "norad_id": 26360,
        "name": "GPS BIIR-4  (PRN 20)",
        "group": "gps-ops",
        "lat": -47.997921887389886,
        "lon": -24.496694861370965,
        "alt_km": 20123.32203747409,
        "timestamp": "2025-12-22T23:36:20.971613+00:00",
        "meta_object_name": "GPS BIIR-4  (PRN 20)",
        "meta_object_id": "2000-025A",
        "meta_epoch": "2025-12-22T04:40:22.100736",
        "meta_mean_motion": 2.00566942,
        "meta_eccentricity": 0.00388974,
        "meta_inclination": 55.0508,
        "meta_ra_of_asc_node": 26.4555,
        "meta_arg_of_pericenter": 242.8773,
        "meta_mean_anomaly": 202.1423,
        "meta_ephemeris_type": 0,
        "meta_classification_type": "U",
        "meta_norad_cat_id": 26360,
        "meta_element_set_no": 999,
        "meta_rev_at_epoch": 18772,
        "meta_bstar": 0,
        "meta_mean_motion_dot": -5.9e-07,
        "meta_mean_motion_ddot": 0,
        "tle_line1": "1 26360U 00025A   25356.19470024 -.00000059  00000+0  00000+0 0  9995",
        "tle_line2": "2 26360  55.0508  26.4555 0038897 242.8773 202.1423  2.00566942187720"
      },
      "geometry": {
        "type": "Point",
        "coordinates": [
          -24.496694861370965,
          -47.997921887389886
        ]
      }
    },
    {
      "type": "Feature",
      "properties": {
        "norad_id": 26407,
        "name": "GPS BIIR-5  (PRN 22)",
        "group": "gps-ops",
        "lat": 36.06439251549937,
        "lon": 11.360069270164601,
        "alt_km": 20502.89544454021,
        "timestamp": "2025-12-22T23:36:20.971630+00:00",
        "meta_object_name": "GPS BIIR-5  (PRN 22)",
        "meta_object_id": "2000-040A",
        "meta_epoch": "2025-12-21T19:27:10.878912",
        "meta_mean_motion": 2.00568103,
        "meta_eccentricity": 0.01255143,
        "meta_inclination": 54.8888,
        "meta_ra_of_asc_node": 222.2083,
        "meta_arg_of_pericenter": 301.962,
        "meta_mean_anomaly": 65.3389,
        "meta_ephemeris_type": 0,
        "meta_classification_type": "U",
        "meta_norad_cat_id": 26407,
        "meta_element_set_no": 999,
        "meta_rev_at_epoch": 18639,
        "meta_bstar": 0,
        "meta_mean_motion_dot": 6.9e-07,
        "meta_mean_motion_ddot": 0,
        "tle_line1": "1 26407U 00040A   25355.81054258  .00000069  00000+0  00000+0 0  9999",
        "tle_line2": "2 26407  54.8888 222.2083 0125514 301.9620  65.3389  2.00568103186396"
      },
      "geometry": {
        "type": "Point",
        "coordinates": [
          11.360069270164601,
          36.06439251549937
        ]
      }
    },
    {
      "type": "Feature",
      "properties": {
        "norad_id": 27663,
        "name": "GPS BIIR-8  (PRN 16)",
        "group": "gps-ops",
        "lat": -54.90081844689809,
        "lon": 130.5771428869987,
        "alt_km": 20498.18296978862,
        "timestamp": "2025-12-22T23:36:20.971644+00:00",
        "meta_object_name": "GPS BIIR-8  (PRN 16)",
        "meta_object_id": "2003-005A",
        "meta_epoch": "2025-12-22T15:01:01.940160",
        "meta_mean_motion": 2.00570357,
        "meta_eccentricity": 0.0147807,
        "meta_inclination": 54.9212,
        "meta_ra_of_asc_node": 221.985,
        "meta_arg_of_pericenter": 51.9453,
        "meta_mean_anomaly": 319.9429,
        "meta_ephemeris_type": 0,
        "meta_classification_type": "U",
        "meta_norad_cat_id": 27663,
        "meta_element_set_no": 999,
        "meta_rev_at_epoch": 16777,
        "meta_bstar": 0,
        "meta_mean_motion_dot": 6.7e-07,
        "meta_mean_motion_ddot": 0,
        "tle_line1": "1 27663U 03005A   25356.62571690  .00000067  00000+0  00000+0 0  9990",
        "tle_line2": "2 27663  54.9212 221.9850 0147807  51.9453 319.9429  2.00570357167774"
      },
      "geometry": {
        "type": "Point",
        "coordinates": [
          130.5771428869987,
          -54.90081844689809
        ]
      }
    },
    {
      "type": "Feature",
      "properties": {
        "norad_id": 28190,
        "name": "GPS BIIR-11 (PRN 19)",
        "group": "gps-ops",
        "lat": 49.127178251613444,
        "lon": -23.18857646472706,
        "alt_km": 20225.749559883247,
        "timestamp": "2025-12-22T23:36:20.971658+00:00",
        "meta_object_name": "GPS BIIR-11 (PRN 19)",
        "meta_object_id": "2004-009A",
        "meta_epoch": "2025-12-22T01:59:41.237952",
        "meta_mean_motion": 2.00560473,
        "meta_eccentricity": 0.01084919,
        "meta_inclination": 54.9772,
        "meta_ra_of_asc_node": 282.8425,
        "meta_arg_of_pericenter": 167.7907,
        "meta_mean_anomaly": 330.6754,
        "meta_ephemeris_type": 0,
        "meta_classification_type": "U",
        "meta_norad_cat_id": 28190,
        "meta_element_set_no": 999,
        "meta_rev_at_epoch": 15939,
        "meta_bstar": 0,
        "meta_mean_motion_dot": -2.4e-07,
        "meta_mean_motion_ddot": 0,
        "tle_line1": "1 28190U 04009A   25356.08311618 -.00000024  00000+0  00000+0 0  9997",
        "tle_line2": "2 28190  54.9772 282.8425 0108491 167.7907 330.6754  2.00560473159399"
      },
      "geometry": {
        "type": "Point",
        "coordinates": [
          -23.18857646472706,
          49.127178251613444
        ]
      }
    },
    {
      "type": "Feature",
      "properties": {
        "norad_id": 28474,
        "name": "GPS BIIR-13 (PRN 02)",
        "group": "gps-ops",
        "lat": 39.59771819814215,
        "lon": 116.92652402386304,
        "alt_km": 20631.678499318696,
        "timestamp": "2025-12-22T23:36:20.971671+00:00",
        "meta_object_name": "GPS BIIR-13 (PRN 02)",
        "meta_object_id": "2004-045A",
        "meta_epoch": "2025-12-21T13:21:16.085088",
        "meta_mean_motion": 2.00569985,
        "meta_eccentricity": 0.0170919,
        "meta_inclination": 55.2363,
        "meta_ra_of_asc_node": 332.0513,
        "meta_arg_of_pericenter": 309.6441,
        "meta_mean_anomaly": 228.908,
        "meta_ephemeris_type": 0,
        "meta_classification_type": "U",
        "meta_norad_cat_id": 28474,
        "meta_element_set_no": 999,
        "meta_rev_at_epoch": 15486,
        "meta_bstar": 0,
        "meta_mean_motion_dot": -7.1e-07,
        "meta_mean_motion_ddot": 0,
        "tle_line1": "1 28474U 04045A   25355.55643617 -.00000071  00000+0  00000+0 0  9992",
        "tle_line2": "2 28474  55.2363 332.0513 0170919 309.6441 228.9080  2.00569985154869"
      },
      "geometry": {
        "type": "Point",
        "coordinates": [
          116.92652402386304,
          39.59771819814215
        ]
      }
    },
    {
      "type": "Feature",
      "properties": {
        "norad_id": 28874,
        "name": "GPS BIIRM-1 (PRN 17)",
        "group": "gps-ops",
        "lat": 55.02977112703548,
        "lon": 8.359803637638956,
        "alt_km": 20489.842131890768,
        "timestamp": "2025-12-22T23:36:20.971684+00:00",
        "meta_object_name": "GPS BIIRM-1 (PRN 17)",
        "meta_object_id": "2005-038A",
        "meta_epoch": "2025-12-21T00:50:49.977024",
        "meta_mean_motion": 2.00577927,
        "meta_eccentricity": 0.01313807,
        "meta_inclination": 55.0245,
        "meta_ra_of_asc_node": 280.367,
        "meta_arg_of_pericenter": 293.7438,
        "meta_mean_anomaly": 187.6731,
        "meta_ephemeris_type": 0,
        "meta_classification_type": "U",
        "meta_norad_cat_id": 28874,
        "meta_element_set_no": 999,
        "meta_rev_at_epoch": 14826,
        "meta_bstar": 0,
        "meta_mean_motion_dot": -2.4e-07,
        "meta_mean_motion_ddot": 0,
        "tle_line1": "1 28874U 05038A   25355.03530066 -.00000024  00000+0  00000+0 0  9993",
        "tle_line2": "2 28874  55.0245 280.3670 0131380 293.7438 187.6731  2.00577927148263"
      },
      "geometry": {
        "type": "Point",
        "coordinates": [
          8.359803637638956,
          55.02977112703548
        ]
      }
    }
  ]
}